      2.10          N: GNSS NAV DATA                        RINEX VERSION / TYPE
fic2rin                                 08/02/2024 00:59:03 PGM / RUN BY / DATE
                                                            END OF HEADER
3  24  8  1  1 59 44.0  .481917522848D-03  .155750967679D-10  .000000000000D+00
     .100000000000D+01 -.114750000000D+03  .384266006222D-08  .143142313684D+01
    -.604242086411D-05  .572523381561D-02  .523217022419D-05  .515368741608D+04
     .352784000000D+06 -.102445483208D-06  .194473523524D+01 -.223517417908D-07
     .985228322829D+00  .289218750000D+03  .113518106569D+01 -.789997192268D-08
    -.532165023952D-10  .100000000000D+01  .232500000000D+04  .000000000000D+00
     .240000000000D+01  .000000000000D+00  .139698386192D-08  .100000000000D+01
     .345600000000D+06  .400000000000D+01
5  24  8  1  1 59 44.0 -.181675888598D-03 -.125055521494D-11  .000000000000D+00
     .300000000000D+01 -.124687500000D+03  .410445668138D-08 -.114571145724D+01
    -.613741576672D-05  .596013502218D-02  .415742397308D-05  .515365472603D+04
     .352784000000D+06  .149011611938D-07  .189251979470D+01  .126659870148D-06
     .972140070222D+00  .303593750000D+03  .129900413424D+01 -.807212195057D-08
    -.196436753808D-10  .100000000000D+01  .232500000000D+04  .000000000000D+00
     .240000000000D+01  .000000000000D+00 -.107102096081D-07  .300000000000D+01
     .345600000000D+06  .400000000000D+01
7  24  8  1  1 59 44.0 -.593280419707D-04  .670752342558D-11  .000000000000D+00
     .170000000000D+02  .590625000000D+01  .518271588092D-08  .195776653206D+01
     .279396772385D-07  .186938138213D-01  .638328492641D-05  .515361265182D+04
     .352784000000D+06 -.236555933952D-06 -.224843299669D+01 -.413507223129D-06
     .950185230595D+00  .254875000000D+03 -.210675878728D+01 -.803140596887D-08
     .232509684962D-09  .100000000000D+01  .232500000000D+04  .000000000000D+00
     .240000000000D+01  .000000000000D+00 -.111758708954D-07  .170000000000D+02
     .345600000000D+06  .400000000000D+01
19 24  8  1  2  0  0.0  .518382526934D-03  .522959453519D-11  .000000000000D+00
     .126000000000D+03  .118656250000D+03  .415410160643D-08  .427216908808D+00
     .586174428463D-05  .100037651137D-01  .740028917789D-05  .515372806549D+04
     .352800000000D+06  .160187482834D-06 -.494269167952D-01 -.128522515297D-06
     .967486698973D+00  .242937500000D+03  .261002512671D+01 -.800997650482D-08
    -.162863926793D-09  .100000000000D+01  .232500000000D+04  .000000000000D+00
     .240000000000D+01  .000000000000D+00 -.153668224812D-07  .126000000000D+03
     .345600000000D+06  .400000000000D+01
28 24  8  1  2  0  0.0 -.354547519237D-03 -.153477230924D-10  .000000000000D+00
     .118000000000D+03  .971875000000D+01  .500056543648D-08  .788328490714D+00
     .633299350739D-06  .304493354633D-03  .643543899059D-05  .515368217850D+04
     .352800000000D+06 -.353902578354D-07 -.228075961975D+01  .108033418655D-06
     .961298220489D+00  .256781250000D+03  .146550616129D+01 -.807819363205D-08
     .318227541169D-09  .100000000000D+01  .232500000000D+04  .000000000000D+00
     .240000000000D+01  .000000000000D+00 -.931322574615D-08  .630000000000D+03
     .345600000000D+06  .400000000000D+01
23 24  8  1  2  0  0.0  .286960974336D-03  .875388650456D-11  .000000000000D+00
     .800000000000D+02 -.113062500000D+03  .399659504565D-08  .164381649295D+01
    -.600144267082D-05  .445973977912D-02  .388175249100D-05  .515360138512D+04
     .352800000000D+06 -.391155481339D-07  .191286691808D+01  .316649675369D-07
     .980000358320D+00  .313875000000D+03 -.296609204482D+01 -.792175854447D-08
    -.907180644858D-10  .100000000000D+01  .232500000000D+04  .000000000000D+00
     .240000000000D+01  .000000000000D+00 -.838190317154D-08  .848000000000D+03
     .345600000000D+06  .400000000000D+01
31 24  8  1  1 59 44.0 -.226299278438D-03  .341060513165D-12  .000000000000D+00
     .700000000000D+01  .124375000000D+02  .521664586567D-08  .101114727546D+01
     .910833477974D-06  .105218553217D-01  .632181763649D-05  .515375221252D+04
     .352784000000D+06  .931322574615D-08 -.222663952132D+01  .150874257088D-06
     .954126549875D+00  .255906250000D+03  .700317075932D+00 -.833927593574D-08
     .892894335490D-10  .100000000000D+01  .232500000000D+04  .000000000000D+00
     .240000000000D+01  .000000000000D+00 -.135041773319D-07  .700000000000D+01
     .345780000000D+06  .400000000000D+01
29 24  8  1  1 59 44.0 -.586590729654D-03  .204636307899D-11  .000000000000D+00
     .700000000000D+01  .121031250000D+03  .395409327528D-08 -.151674877301D+01
     .621192157269D-05  .302787183318D-02  .852905213833D-05  .515356600571D+04
     .352784000000D+06 -.409781932831D-07 -.785285486521D-01  .745058059692D-08
     .970732429965D+00  .219843750000D+03  .263841119267D+01 -.776246619502D-08
    -.853606984729D-10  .100000000000D+01  .232500000000D+04  .000000000000D+00
     .240000000000D+01  .000000000000D+00 -.977888703346D-08  .700000000000D+01
     .347700000000D+06  .400000000000D+01
32 24  8  1  1 59 44.0 -.608870293945D-03  .238742359215D-11  .000000000000D+00
     .540000000000D+02 -.568125000000D+02  .435518141079D-08 -.770868333760D+00
    -.278837978840D-05  .778970087413D-02  .995956361294D-05  .515371194458D+04
     .352784000000D+06  .223517417908D-07  .297752611305D+01  .130385160446D-06
     .962849087741D+00  .192093750000D+03 -.213172010350D+01 -.781925427475D-08
     .468948104999D-09  .100000000000D+01  .232500000000D+04  .000000000000D+00
     .240000000000D+01  .000000000000D+00  .931322574615D-09  .540000000000D+02
     .351900000000D+06  .400000000000D+01
6  24  8  1  1 59 44.0  .126868486404D-03 -.236468622461D-10  .000000000000D+00
     .300000000000D+01  .383125000000D+02  .387266131189D-08  .286210836463D+01
     .200979411602D-05  .294497772120D-02  .983476638794D-06  .515366678810D+04
     .352784000000D+06 -.298023223877D-07  .908178755096D+00 -.465661287308D-07
     .989627302864D+00  .378093750000D+03 -.725507290554D+00 -.800104756146D-08
     .814319633967D-10  .100000000000D+01  .232500000000D+04  .000000000000D+00
     .240000000000D+01  .000000000000D+00  .372529029846D-08  .300000000000D+01
     .351960000000D+06  .400000000000D+01
6  24  8  1  3 59 44.0  .126698054373D-03 -.236468622461D-10  .000000000000D+00
     .400000000000D+01  .399687500000D+02  .392409202561D-08 -.237103373724D+01
     .206194818020D-05  .294554943684D-02  .125914812088D-05  .515366555977D+04
     .359984000000D+06  .167638063431D-07  .908121135142D+00  .149011611938D-07
     .989627576429D+00  .372312500000D+03 -.725369859641D+00 -.804319217410D-08
     .489306095849D-10  .100000000000D+01  .232500000000D+04  .000000000000D+00
     .240000000000D+01  .000000000000D+00  .372529029846D-08  .400000000000D+01
     .352800000000D+06  .400000000000D+01
29 24  8  1  3 59 44.0 -.586575828493D-03  .204636307899D-11  .000000000000D+00
     .110000000000D+02  .127093750000D+03  .400195241167D-08 -.466658826008D+00
     .647641718388D-05  .302714656573D-02  .835023820400D-05  .515356452751D+04
     .359984000000D+06 -.558793544769D-08 -.785840576157D-01 -.838190317154D-07
     .970731530270D+00  .224656250000D+03  .263856381745D+01 -.777460955798D-08
    -.163935399996D-09  .100000000000D+01  .232500000000D+04  .000000000000D+00
     .240000000000D+01  .000000000000D+00 -.977888703346D-08  .110000000000D+02
     .352800000000D+06  .400000000000D+01
